QIANFAN-57              
1 62787U 25016C   26007.82175097  .00000180  00000+0  26033-3 0  9993
2 62787  88.9781 100.5110 0002570 101.2587 258.8853 13.50985757 50722
QIANFAN-58              
1 62788U 25016D   26007.79289086  .00000179  00000+0  25888-3 0  9999
2 62788  88.9751 100.3375 0012171 264.6135  95.3627 13.50987474 50767
QIANFAN-59              
1 62789U 25016E   26007.81756522  .00000183  00000+0  26472-3 0  9992
2 62789  88.9775 100.4150 0012493 269.0800  90.8920 13.50983803 50769
QIANFAN-60              
1 62790U 25016F   26007.77643785  .00000176  00000+0  25448-3 0  9999
2 62790  88.9755 100.3856 0014069 265.3876  94.5668 13.50992941 50745
QIANFAN-61              
1 62791U 25016G   26007.80932100  .00000176  00000+0  25376-3 0  9996
2 62791  88.9823 100.5629 0013014 264.4691  95.4975 13.50983275 50769
QIANFAN-62              
1 62792U 25016H   26007.81347220  .00000183  00000+0  26549-3 0  9992
2 62792  88.9769 100.4169 0014397 265.1689  94.7819 13.50985925 50759
QIANFAN-63              
1 62793U 25016J   26007.76406029  .00000180  00000+0  26104-3 0  9994
2 62793  88.9776 100.3752 0014393 271.3005  88.6497 13.50984056 50783
QIANFAN-64              
1 62794U 25016K   26007.80519803  .00000188  00000+0  27235-3 0  9999
2 62794  88.9763 100.3416 0012409 262.7373  97.2368 13.50987549 50788
